COSMOS 2433 (720)       
1 32275U 07052A   25279.98557481 -.00000018  00000+0  00000+0 0  9993
2 32275  65.7169 324.4492 0005777 235.7425 124.2820  2.13104041139667
COSMOS 2432 (719)       
1 32276U 07052B   25280.16218792 -.00000019  00000+0  00000+0 0  9996
2 32276  65.7324 324.5662 0009810 306.6530 133.5465  2.13103056139694
COSMOS 2434 (721)       
1 32393U 07065A   25280.29240098  .00000027  00000+0  00000+0 0  9996
2 32393  64.3158 200.4447 0002181  57.8607  68.4626  2.13101168138383
COSMOS 2436 (723)       
1 32395U 07065C   25279.17308701  .00000019  00000+0  00000+0 0  9990
2 32395  64.3246 200.5519 0017186   0.9922 120.0109  2.13099924138314
COSMOS 2456 (730)       
1 36111U 09070A   25279.46343291  .00000047  00000+0  00000+0 0  9994
2 36111  64.8621  79.6371 0001423 338.7625  28.2747  2.13103576123024
COSMOS 2457 (733)       
1 36112U 09070B   25279.70985178  .00000045  00000+0  00000+0 0  9996
2 36112  64.8475  79.4775 0006039 139.2500 186.6045  2.13100982123020
COSMOS 2460 (732)       
1 36402U 10007C   25280.24471738 -.00000018  00000+0  00000+0 0  9994
2 36402  65.5643 323.0203 0002758 236.3181 138.3116  2.13106129121344
COSMOS 2476 (744)       
1 37867U 11064A   25279.52742488  .00000051  00000+0  00000+0 0  9992
2 37867  65.1254  81.4443 0022344 230.5142  94.5156  2.13101396108355
COSMOS 2477 (745)       
1 37868U 11064B   25280.51745134  .00000043  00000+0  00000+0 0  9996
2 37868  65.1329  81.4877 0019460 230.6384 314.4958  2.13102850108376
COSMOS 2475 (743)       
1 37869U 11064C   25280.35382602  .00000044  00000+0  00000+0 0  9997
2 37869  65.1390  81.5127 0024170 246.7562 129.1108  2.13101601108386
COSMOS 2485 (747)       
1 39155U 13019A   25280.44895912  .00000045  00000+0  00000+0 0  9993
2 39155  65.2789  82.0953 0022911 226.4133 133.4125  2.13104371 96898
COSMOS 2492 (754)       
1 39620U 14012A   25279.46883834 -.00000014  00000+0  00000+0 0  9991
2 39620  65.4432 322.5538 0012789 306.9655  52.9971  2.13103140 89831
COSMOS 2500 (755)       
1 40001U 14032A   25280.58042975 -.00000019  00000+0  00000+0 0  9991
2 40001  65.3785 322.2834 0009364 210.9061 149.1150  2.13105895 88074
COSMOS 2501 (702K)      
1 40315U 14075A   25278.96209949  .00000018  00000+0  00000+0 0  9999
2 40315  63.6151 199.1714 0020906 208.6171 151.2888  2.13101279 84439
COSMOS 2514 (751)       
1 41330U 16008A   25280.35391009 -.00000018  00000+0  00000+0 0  9991
2 41330  65.1695 321.6792 0013481 214.3523 145.6368  2.13102466 75237
COSMOS 2522 (752)       
1 42939U 17055A   25280.19232302  .00000026  00000+0  00000+0 0  9990
2 42939  64.0770 200.4942 0008432 235.9503 123.9938  2.13101861 62587
COSMOS 2527 (756)       
1 43508U 18053A   25279.68368153  .00000052  00000+0  00000+0 0  9997
2 43508  65.4365  82.3719 0007476 213.7737 146.1998  2.13102136 56878
COSMOS 2529 (757)       
1 43687U 18086A   25277.90448146  .00000009  00000+0  00000+0 0  9997
2 43687  64.2856 201.2136 0000974  93.7560 266.2683  2.13101663 53842
COSMOS 2534 (758)       
1 44299U 19030A   25280.20502529  .00000026  00000+0  00000+0 0  9999
2 44299  64.3664 201.1333 0011282 279.9657 179.4735  2.13101899 49532
COSMOS 2544 (759)       
1 44850U 19088A   25280.09742606  .00000048  00000+0  00000+0 0  9998
2 44850  65.4243  82.1861 0011922 245.7850 114.1086  2.13101900 45321
COSMOS 2545 (760)       
1 45358U 20018A   25280.29352366 -.00000019  00000+0  00000+0 0  9998
2 45358  64.5059 321.3018 0012224 240.7919 119.1615  2.13102408 43278
COSMOS 2547 (705K)      
1 46805U 20075A   25280.01151130  .00000025  00000+0  00000+0 0  9991
2 46805  64.5970 200.9234 0007647 236.6415 123.3077  2.13099754 38517
COSMOS 2557 (706K)      
1 52984U 22075A   25280.64672054 -.00000024  00000+0  00000+0 0  9990
2 52984  64.4445 323.3768 0013367 271.9714  87.9513  2.13102003 25338
COSMOS 2559 (707K)      
1 54031U 22130A   25279.52721554 -.00000018  00000+0  00000+0 0  9995
2 54031  64.4176 323.5079 0013052 190.2042 169.8475  2.13101491 23288
COSMOS 2564 (761)       
1 54377U 22161A   25279.84079302  .00000024  00000+0  00000+0 0  9990
2 54377  64.7389 201.1193 0010123 217.6234 142.3269  2.13101958 22230
COSMOS 2569 (703K)      
1 57517U 23114A   25280.32398223  .00000044  00000+0  00000+0 0  9991
2 57517  65.1580  81.1569 0008624 290.4341  69.4886  2.13103774 16876
COSMOS 2584 (704K)      
1 63130U 25042A   25279.74113634  .00000049  00000+0  00000+0 0  9991
2 63130  64.9391  81.4273 0006836 203.1802 156.8085  2.13103311  4643
